LEMUR-2-HUBBLE-4        
1 64565U 25135AP  26194.26546644  .00001104  00000+0  10981-3 0  9998
2 64565  97.7717 307.8688 0002518 167.2748 192.8536 14.93682329 57763
LEMUR-2-SEJONG-2        
1 64586U 25135BL  26194.30974839  .00002131  00000+0  19079-3 0  9995
2 64586  97.7705 309.1574 0003830 227.9084 132.1812 14.96903163 57856
LEMUR-2-HUBBLE-5        
1 64840U 25135BT  26194.27498339  .00001025  00000+0  10103-3 0  9990
2 64840  97.7739 308.5451 0004223 243.2055 116.8733 14.94210500 57809
LEMUR-2-KARENDARRELL    
1 64841U 25135BU  26194.19586656  .00004373  00000+0  35154-3 0  9994
2 64841  97.7709 310.3687 0012247 110.7929 249.4607 15.00482255 57913
LEMUR-2-LUCILLE-ROSE    
1 65403U 25135BV  26193.83586689  .00004195  00000+0  33731-3 0  9996
2 65403  97.7710 310.0446 0014651 196.2246 163.8510 15.00473532 52489
OTTER SDM               
1 66678U 25276N   26194.18829196  .00003482  00000+0  16462-3 0  9999
2 66678  97.4209 267.2358 0004240 263.4653  96.6100 15.20042584 34367
LEMUR-2-STAS-GORBUK     
1 66686U 25276W   26193.74827236  .00003778  00000+0  18040-3 0  9994
2 66686  97.4243 266.8551 0003456 260.6907  99.3937 15.19644338 34296
LEMUR-2-TEODOR          
1 66768U 25276DG  26193.76974610  .00003610  00000+0  16439-3 0  9991
2 66768  97.4147 267.1448 0002280  89.7179 270.4318 15.21322077 34330
LEMUR-2-LAILA           
1 66776U 25276DQ  26194.13449469  .00003690  00000+0  16683-3 0  9990
2 66776  97.4170 267.6416 0002911  97.3279 262.8287 15.21550887 34390
LEMUR-2-CELIJO-SB-PK    
1 66781U 25276DW  26193.98390948  .00003504  00000+0  28425-3 0  9996
2 66781  97.5201 263.9101 0007063  69.7393 290.4590 15.00273190 26497
LEMUR-2-FINNIAN         
1 66782U 25276DX  26193.75464174  .00001734  00000+0  14177-3 0  9997
2 66782  97.5339 263.9508 0007885   9.8225 350.3152 15.00601115 23839
LEMUR-2-STARLIGHT       
1 66783U 25276DY  26193.66644495  .00003675  00000+0  30466-3 0  9999
2 66783  97.5235 263.4338 0014810  54.7591 305.5017 14.99335039 34012
LEMUR-2-TARTIFLETTE     
1 66784U 25276DZ  26193.73155905  .00003516  00000+0  29192-3 0  9999
2 66784  97.5235 263.5049 0013872  62.7426 297.5209 14.99322354 34026
LEMUR-2-VUKASIN         
1 66785U 25276EA  26194.17069174  .00002777  00000+0  22476-3 0  9997
2 66785  97.5238 264.2842 0003404  60.3374 299.8189 15.00535741 34048
LEMUR-2-HOTSPUR-TOM     
1 66786U 25276EB  26193.79254356  .00003477  00000+0  28941-3 0  9994
2 66786  97.5223 263.5388 0013783  53.6491 306.6002 14.99227481 33963
